{"type": "FeatureCollection", "features": [{"type": "Feature", "properties": {"norad_id": 28054, "name": "DMSP 5D-3 F16 (USA 172)", "group": "weather", "lat": -46.28484869159166, "lon": 9.546715556101903, "alt_km": 846.4903073845135, "timestamp": "2025-12-08T13:49:31.434708+00:00", "meta": {"OBJECT_NAME": "DMSP 5D-3 F16 (USA 172)", "OBJECT_ID": "2003-048A", "EPOCH": "2025-12-08T07:18:20.786400", "MEAN_MOTION": 14.14421939, "ECCENTRICITY": 0.00066693, "INCLINATION": 99.0048, "RA_OF_ASC_NODE": 359.7265, "ARG_OF_PERICENTER": 334.5933, "MEAN_ANOMALY": 36.0243, "EPHEMERIS_TYPE": 0, "CLASSIFICATION_TYPE": "U", "NORAD_CAT_ID": 28054, "ELEMENT_SET_NO": 999, "REV_AT_EPOCH": 14250, "BSTAR": 0.00016037876, "MEAN_MOTION_DOT": 2.62e-06, "MEAN_MOTION_DDOT": 0}, "tle": {"line1": "1 28054U 03048A   25342.30440725  .00000262  00000+0  16038-3 0  9995", "line2": "2 28054  99.0048 359.7265 0006669 334.5933  36.0243 14.14421939142503"}}, "geometry": {"type": "Point", "coordinates": [9.546715556101903, -46.28484869159166]}}, {"type": "Feature", "properties": {"norad_id": 28912, "name": "METEOSAT-9 (MSG-2)", "group": "weather", "lat": -8.910996370161378, "lon": -29.30918265425469, "alt_km": 35785.19091886103, "timestamp": "2025-12-08T13:49:31.434766+00:00", "meta": {"OBJECT_NAME": "METEOSAT-9 (MSG-2)", "OBJECT_ID": "2005-049B", "EPOCH": "2025-12-07T20:41:55.425120", "MEAN_MOTION": 1.00273689, "ECCENTRICITY": 0.00039018, "INCLINATION": 8.9285, "RA_OF_ASC_NODE": 56.0211, "ARG_OF_PERICENTER": 189.463, "MEAN_ANOMALY": 187.4925, "EPHEMERIS_TYPE": 0, "CLASSIFICATION_TYPE": "U", "NORAD_CAT_ID": 28912, "ELEMENT_SET_NO": 999, "REV_AT_EPOCH": 508, "BSTAR": 0, "MEAN_MOTION_DOT": 1.24e-06, "MEAN_MOTION_DDOT": 0}, "tle": {"line1": "1 28912U 05049B   25341.86244705  .00000124  00000+0  00000+0 0  9996", "line2": "2 28912   8.9285  56.0211 0003901 189.4630 187.4925  1.00273689  5080"}}, "geometry": {"type": "Point", "coordinates": [-29.30918265425469, -8.910996370161378]}}, {"type": "Feature", "properties": {"norad_id": 29522, "name": "DMSP 5D-3 F17 (USA 191)", "group": "weather", "lat": -64.73588801015914, "lon": 149.02931280338802, "alt_km": 843.1579882955975, "timestamp": "2025-12-08T13:49:31.434785+00:00", "meta": {"OBJECT_NAME": "DMSP 5D-3 F17 (USA 191)", "OBJECT_ID": "2006-050A", "EPOCH": "2025-12-08T05:52:35.395104", "MEAN_MOTION": 14.14916828, "ECCENTRICITY": 0.00092687, "INCLINATION": 98.7393, "RA_OF_ASC_NODE": 347.7275, "ARG_OF_PERICENTER": 238.662, "MEAN_ANOMALY": 121.3647, "EPHEMERIS_TYPE": 0, "CLASSIFICATION_TYPE": "U", "NORAD_CAT_ID": 29522, "ELEMENT_SET_NO": 999, "REV_AT_EPOCH": 98541, "BSTAR": 0.00018988043, "MEAN_MOTION_DOT": 3.24e-06, "MEAN_MOTION_DDOT": 0}, "tle": {"line1": "1 29522U 06050A   25342.24485411  .00000324  00000+0  18988-3 0  9991", "line2": "2 29522  98.7393 347.7275 0009268 238.6620 121.3647 14.14916828985413"}}, "geometry": {"type": "Point", "coordinates": [149.02931280338802, -64.73588801015914]}}, {"type": "Feature", "properties": {"norad_id": 32958, "name": "FENGYUN 3A", "group": "weather", "lat": -69.48579840924138, "lon": 78.12674350410224, "alt_km": 832.4684857202838, "timestamp": "2025-12-08T13:49:31.434798+00:00", "meta": {"OBJECT_NAME": "FENGYUN 3A", "OBJECT_ID": "2008-026A", "EPOCH": "2025-12-08T07:34:09.796224", "MEAN_MOTION": 14.19512565, "ECCENTRICITY": 0.00081018, "INCLINATION": 98.6692, "RA_OF_ASC_NODE": 281.9355, "ARG_OF_PERICENTER": 324.3288, "MEAN_ANOMALY": 35.7346, "EPHEMERIS_TYPE": 0, "CLASSIFICATION_TYPE": "U", "NORAD_CAT_ID": 32958, "ELEMENT_SET_NO": 999, "REV_AT_EPOCH": 90832, "BSTAR": 0.0001438781, "MEAN_MOTION_DOT": 2.6e-06, "MEAN_MOTION_DDOT": 0}, "tle": {"line1": "1 32958U 08026A   25342.31539116  .00000260  00000+0  14388-3 0  9992", "line2": "2 32958  98.6692 281.9355 0008101 324.3288  35.7346 14.19512565908321"}}, "geometry": {"type": "Point", "coordinates": [78.12674350410224, -69.48579840924138]}}, {"type": "Feature", "properties": {"norad_id": 35491, "name": "GOES 14", "group": "weather", "lat": 1.1830751446027754, "lon": 176.61091643476908, "alt_km": 35777.79160618424, "timestamp": "2025-12-08T13:49:31.434814+00:00", "meta": {"OBJECT_NAME": "GOES 14", "OBJECT_ID": "2009-033A", "EPOCH": "2025-12-08T05:56:27.187296", "MEAN_MOTION": 1.00273042, "ECCENTRICITY": 0.00041014, "INCLINATION": 1.1876, "RA_OF_ASC_NODE": 85.4574, "ARG_OF_PERICENTER": 154.3532, "MEAN_ANOMALY": 178.252, "EPHEMERIS_TYPE": 0, "CLASSIFICATION_TYPE": "U", "NORAD_CAT_ID": 35491, "ELEMENT_SET_NO": 999, "REV_AT_EPOCH": 467, "BSTAR": 0, "MEAN_MOTION_DOT": -6.6e-07, "MEAN_MOTION_DDOT": 0}, "tle": {"line1": "1 35491U 09033A   25342.24753689 -.00000066  00000+0  00000+0 0  9998", "line2": "2 35491   1.1876  85.4574 0004101 154.3532 178.2520  1.00273042  4670"}}, "geometry": {"type": "Point", "coordinates": [176.61091643476908, 1.1830751446027754]}}, {"type": "Feature", "properties": {"norad_id": 35951, "name": "DMSP 5D-3 F18 (USA 210)", "group": "weather", "lat": 62.73444069511482, "lon": 156.66238922852253, "alt_km": 830.4831609484118, "timestamp": "2025-12-08T13:49:31.434826+00:00", "meta": {"OBJECT_NAME": "DMSP 5D-3 F18 (USA 210)", "OBJECT_ID": "2009-057A", "EPOCH": "2025-12-08T06:29:29.447808", "MEAN_MOTION": 14.14765224, "ECCENTRICITY": 0.00121112, "INCLINATION": 98.8829, "RA_OF_ASC_NODE": 318.6937, "ARG_OF_PERICENTER": 74.386, "MEAN_ANOMALY": 285.8649, "EPHEMERIS_TYPE": 0, "CLASSIFICATION_TYPE": "U", "NORAD_CAT_ID": 35951, "ELEMENT_SET_NO": 999, "REV_AT_EPOCH": 83259, "BSTAR": 0.00026741176, "MEAN_MOTION_DOT": 4.71e-06, "MEAN_MOTION_DDOT": 0}, "tle": {"line1": "1 35951U 09057A   25342.27047972  .00000471  00000+0  26741-3 0  9992", "line2": "2 35951  98.8829 318.6937 0012111  74.3860 285.8649 14.14765224832595"}}, "geometry": {"type": "Point", "coordinates": [156.66238922852253, 62.73444069511482]}}, {"type": "Feature", "properties": {"norad_id": 36411, "name": "EWS-G2 (GOES 15)", "group": "weather", "lat": -0.7905120666763823, "lon": -13.530625562784248, "alt_km": 35785.98609952334, "timestamp": "2025-12-08T13:49:31.434840+00:00", "meta": {"OBJECT_NAME": "EWS-G2 (GOES 15)", "OBJECT_ID": "2010-008A", "EPOCH": "2025-12-08T05:20:07.584864", "MEAN_MOTION": 1.00268577, "ECCENTRICITY": 0.00059779, "INCLINATION": 0.8024, "RA_OF_ASC_NODE": 86.0614, "ARG_OF_PERICENTER": 172.8006, "MEAN_ANOMALY": 319.8489, "EPHEMERIS_TYPE": 0, "CLASSIFICATION_TYPE": "U", "NORAD_CAT_ID": 36411, "ELEMENT_SET_NO": 999, "REV_AT_EPOCH": 5772, "BSTAR": 0, "MEAN_MOTION_DOT": 4e-07, "MEAN_MOTION_DDOT": 0}, "tle": {"line1": "1 36411U 10008A   25342.22231001  .00000040  00000+0  00000+0 0  9993", "line2": "2 36411   0.8024  86.0614 0005977 172.8006 319.8489  1.00268577 57727"}}, "geometry": {"type": "Point", "coordinates": [-13.530625562784248, -0.7905120666763823]}}, {"type": "Feature", "properties": {"norad_id": 36744, "name": "COMS 1", "group": "weather", "lat": -1.8021945393956391, "lon": 53.206257465533, "alt_km": 35790.47271490243, "timestamp": "2025-12-08T13:49:31.434854+00:00", "meta": {"OBJECT_NAME": "COMS 1", "OBJECT_ID": "2010-032A", "EPOCH": "2025-12-07T17:45:51.479424", "MEAN_MOTION": 1.00271292, "ECCENTRICITY": 0.00011614, "INCLINATION": 4.3291, "RA_OF_ASC_NODE": 78.052, "ARG_OF_PERICENTER": 192.8793, "MEAN_ANOMALY": 200.4669, "EPHEMERIS_TYPE": 0, "CLASSIFICATION_TYPE": "U", "NORAD_CAT_ID": 36744, "ELEMENT_SET_NO": 999, "REV_AT_EPOCH": 4917, "BSTAR": 0, "MEAN_MOTION_DOT": -3.42e-06, "MEAN_MOTION_DDOT": 0}, "tle": {"line1": "1 36744U 10032A   25341.74017916 -.00000342  00000+0  00000+0 0  9998", "line2": "2 36744   4.3291  78.0520 0001161 192.8793 200.4669  1.00271292 49177"}}, "geometry": {"type": "Point", "coordinates": [53.206257465533, -1.8021945393956391]}}, {"type": "Feature", "properties": {"norad_id": 37214, "name": "FENGYUN 3B", "group": "weather", "lat": 76.69801442015228, "lon": -19.518924690693893, "alt_km": 830.4108559894712, "timestamp": "2025-12-08T13:49:31.434865+00:00", "meta": {"OBJECT_NAME": "FENGYUN 3B", "OBJECT_ID": "2010-059A", "EPOCH": "2025-12-08T06:57:08.213760", "MEAN_MOTION": 14.14788037, "ECCENTRICITY": 0.00222034, "INCLINATION": 98.9915, "RA_OF_ASC_NODE": 22.2359, "ARG_OF_PERICENTER": 10.3816, "MEAN_ANOMALY": 51.7686, "EPHEMERIS_TYPE": 0, "CLASSIFICATION_TYPE": "U", "NORAD_CAT_ID": 37214, "ELEMENT_SET_NO": 999, "REV_AT_EPOCH": 78043, "BSTAR": 0.0001248076, "MEAN_MOTION_DOT": 1.96e-06, "MEAN_MOTION_DDOT": 0}, "tle": {"line1": "1 37214U 10059A   25342.28967840  .00000196  00000+0  12481-3 0  9996", "line2": "2 37214  98.9915  22.2359 0022203  10.3816  51.7686 14.14788037780439"}}, "geometry": {"type": "Point", "coordinates": [-19.518924690693893, 76.69801442015228]}}, {"type": "Feature", "properties": {"norad_id": 37849, "name": "SUOMI NPP", "group": "weather", "lat": -29.826533719933916, "lon": 94.87375027343734, "alt_km": 832.6918330738517, "timestamp": "2025-12-08T13:49:31.434876+00:00", "meta": {"OBJECT_NAME": "SUOMI NPP", "OBJECT_ID": "2011-061A", "EPOCH": "2025-12-08T07:45:49.710528", "MEAN_MOTION": 14.1951233, "ECCENTRICITY": 0.00020946, "INCLINATION": 98.7767, "RA_OF_ASC_NODE": 279.705, "ARG_OF_PERICENTER": 128.0181, "MEAN_ANOMALY": 232.1184, "EPHEMERIS_TYPE": 0, "CLASSIFICATION_TYPE": "U", "NORAD_CAT_ID": 37849, "ELEMENT_SET_NO": 999, "REV_AT_EPOCH": 73136, "BSTAR": 0.00011947095, "MEAN_MOTION_DOT": 2.08e-06, "MEAN_MOTION_DDOT": 0}, "tle": {"line1": "1 37849U 11061A   25342.32349202  .00000208  00000+0  11947-3 0  9995", "line2": "2 37849  98.7767 279.7050 0002094 128.0181 232.1184 14.19512330731363"}}, "geometry": {"type": "Point", "coordinates": [94.87375027343734, -29.826533719933916]}}]}